KNACKSAT-2              
1 67683U 98067XZ  26192.35673257  .00035473  00000+0  40006-3 0  9992
2 67683  51.6254 172.7064 0008193 314.9456  45.0873 15.62129323 24057
GEOSCAN 3 (RS92S3)      
1 64893U 25155T   26192.75610991  .00010922  00000+0  31119-3 0  9997
2 64893  97.4542 162.9353 0008647  96.2184 264.0045 15.36229690 84621
INNOSAT 3 (RS92S0)      
1 64894U 25155U   26192.73418228  .00025150  00000+0  52232-3 0  9993
2 64894  97.4486 164.8513 0008336  98.5347 261.6846 15.45634680 84754
