OBJECT_NAME,OBJECT_ID,EPOCH,MEAN_MOTION,ECCENTRICITY,INCLINATION,RA_OF_ASC_NODE,ARG_OF_PERICENTER,MEAN_ANOMALY,EPHEMERIS_TYPE,CLASSIFICATION_TYPE,NORAD_CAT_ID,ELEMENT_SET_NO,REV_AT_EPOCH,BSTAR,MEAN_MOTION_DOT,MEAN_MOTION_DDOT
GEOSCAN 3 (RS92S3),2025-155T,2026-07-11T18:08:47.896224,15.36229690,.00086472,97.4542,162.9353,96.2184,264.0045,0,U,64893,999,8462,.31118563E-3,.10922E-3,0
INNOSAT 3 (RS92S0),2025-155U,2026-07-11T17:37:13.348992,15.45634680,.00083362,97.4486,164.8513,98.5347,261.6846,0,U,64894,999,8475,.52232181E-3,.2515E-3,0
KNACKSAT-2,1998-067XZ,2026-07-11T08:33:41.694048,15.62129323,.00081939,51.6254,172.7064,314.9456,45.0873,0,U,67683,999,2405,.40006392E-3,.35473E-3,0
